OBJECT_NAME,OBJECT_ID,EPOCH,MEAN_MOTION,ECCENTRICITY,INCLINATION,RA_OF_ASC_NODE,ARG_OF_PERICENTER,MEAN_ANOMALY,EPHEMERIS_TYPE,CLASSIFICATION_TYPE,NORAD_CAT_ID,ELEMENT_SET_NO,REV_AT_EPOCH,BSTAR,MEAN_MOTION_DOT,MEAN_MOTION_DDOT
SL-12 R/B(2),1985-042D,2026-06-16T16:19:37.900128,14.22005861,.0036312,71.1078,238.5872,328.5116,146.5779,0,U,15772,999,12846,.75112E-4,.119E-5,0
SL-14 R/B,1985-069B,2026-06-16T16:45:07.485120,14.86515235,.0017757,82.5271,291.8259,220.8646,139.1241,0,U,15945,999,18754,.39919E-4,.378E-5,0
SL-16 R/B,1985-097B,2026-06-16T18:46:25.668192,14.16610178,.00054,71.0033,291.9303,112.2363,354.4419,0,U,16182,999,10126,-.44323E-4,-.136E-5,0
SL-14 R/B,1986-006B,2026-06-16T17:09:42.892992,14.86945184,.0074982,82.5261,166.5576,305.0683,54.3516,0,U,16496,999,16392,.45907E-4,.457E-5,0
COSMOS 1743,1986-034A,2026-06-16T16:47:35.839968,15.66900237,.0003889,82.5280,329.2499,273.0247,87.0568,0,U,16719,999,19571,.36054E-3,.38278E-3,0
SL-14 R/B,1986-046B,2026-06-16T17:58:14.458944,14.85670692,.0021601,82.4816,346.5896,260.0389,99.8389,0,U,16792,999,14111,.33031E-4,.311E-5,0
SL-14 R/B,1986-055B,2026-06-16T20:47:30.198336,14.85722954,.00191,82.5204,33.4347,8.7388,1.9493,0,U,16882,999,13409,.33996E-4,.32E-5,0
AJISAI (EGS),1986-061A,2026-06-16T19:32:08.754144,12.44516793,.0011217,50.0066,148.5424,179.6572,248.6551,0,U,16908,999,48034,-.15925E-3,-.12E-5,0
SL-14 R/B,1987-024B,2026-06-16T19:31:28.978176,14.86212963,.0016823,82.5280,359.6019,294.6031,65.3432,0,U,17567,999,10285,.33526E-4,.319E-5,0
COSMOS 1833,1987-027A,2026-06-16T14:42:23.247648,14.13049592,.0022785,70.9178,118.0755,56.0562,304.2721,0,U,17589,999,2429,.19538E-3,.318E-5,0
SL-16 R/B,1987-027B,2026-06-16T20:43:00.369408,14.17171824,.0006517,71.0033,67.5114,312.6123,47.4451,0,U,17590,999,2939,-.80982E-4,-.211E-5,0
SL-14 R/B,1987-038B,2026-06-16T14:09:37.431648,14.85444861,.0018834,82.5009,203.6348,193.1818,166.8909,0,U,17912,999,9391,.29984E-4,.283E-5,0
COSMOS 1844,1987-041A,2026-06-16T18:05:06.692352,14.14567947,.0032915,70.8969,185.2219,236.2309,123.5676,0,U,17973,999,1759,-.6246E-4,-.169E-5,0
SL-14 R/B,1987-055B,2026-06-16T18:02:23.736768,14.85710865,.0021731,82.4996,255.6396,49.0501,311.2591,0,U,18153,999,8464,.34704E-4,.327E-5,0
COSMOS 1867,1987-060A,2026-06-16T20:29:26.845152,14.31515701,.0016527,65.0116,28.9924,282.1491,77.7742,0,U,18187,999,3413,.13388E-4,-.65E-6,0
SL-14 R/B,1988-001B,2026-06-16T18:05:14.265312,14.85609368,.0016427,82.5132,102.1815,271.1344,88.7990,0,U,18749,999,5673,.38032E-4,.354E-5,0
COSMOS 1933,1988-020A,2026-06-16T16:59:38.378976,15.18710033,.0003531,82.5119,152.9095,186.7207,173.3980,0,U,18958,999,6525,.15869E-3,.3323E-4,0
SL-3 R/B,1988-032B,2026-06-16T20:21:37.478016,15.20838346,.002379,97.5255,150.8893,246.2694,113.6045,0,U,19046,999,6717,.15129E-3,.3291E-4,0
SL-16 R/B,1988-039B,2026-06-16T20:08:10.464864,14.19629501,.0022278,71.0138,218.8944,193.6808,166.3716,0,U,19120,999,97245,.20757E-4,-.4E-7,0
COSMOS 1953,1988-050A,2026-06-16T18:10:16.375008,15.29974327,.0012143,82.5079,58.4685,127.7954,232.4388,0,U,19210,999,5292,.21986E-3,.6425E-4,0
SL-8 R/B,1988-053B,2026-06-16T17:40:28.093728,14.38967235,.0019144,74.0480,289.8881,85.3881,22.0469,0,U,19257,999,99084,.54201E-4,.141E-5,0
COSMOS 1975,1988-093A,2026-06-16T19:51:08.743392,15.29321953,.0011293,82.5186,18.0641,172.7360,187.4046,0,U,19573,999,3455,.19024E-3,.5452E-4,0
SL-14 R/B,1988-093B,2026-06-16T21:05:18.095424,14.85741649,.0022096,82.5311,308.9343,71.3940,43.5566,0,U,19574,999,1574,.39759E-4,.371E-5,0
SL-16 R/B,1988-102B,2026-06-16T17:20:42.275328,14.16164333,.0015821,71.0000,303.1163,226.0455,133.9364,0,U,19650,999,94091,-.68425E-4,-.183E-5,0
INTERCOSMOS 24,1989-080A,2026-06-16T16:46:19.083936,12.59661310,.1188372,82.6066,39.9629,63.0371,308.7061,0,U,20261,999,67926,.2218E-3,.784E-5,0
SL-14 R/B,1989-080C,2026-06-16T18:17:44.632896,12.50570504,.1228766,82.5932,109.5806,318.3744,32.9841,0,U,20262,999,67253,.7151E-4,.239E-5,0
DELTA 1 R/B,1989-089B,2026-06-16T19:19:50.411712,14.50731086,.006921,97.0635,359.4247,168.1817,192.1026,0,U,20323,999,91010,.6758E-4,.239E-5,0
ARIANE 40 R/B,1990-005H,2026-06-16T16:44:02.514912,14.39927221,.0008822,98.2959,225.3285,266.0690,93.9490,0,U,20443,999,90705,.78711E-4,.205E-5,0
DELTA 2 R/B(1),1990-008B,2026-06-16T14:49:34.654080,15.68742109,.0065024,35.5992,239.4686,109.1082,251.6712,0,U,20453,999,94161,.54588E-3,.73516E-3,0
COSMOS 2058,1990-010A,2026-06-16T16:08:00.036960,15.12011210,.000924,82.4681,309.8622,2.5991,357.5285,0,U,20465,999,95719,.20458E-3,.3544E-4,0
SL-14 R/B,1990-010B,2026-06-16T18:19:01.138368,14.83645963,.0019126,82.5016,174.3431,337.7433,22.2950,0,U,20466,999,94317,.34163E-4,.306E-5,0
