{
  "version": 1,
  "fetchedAt": "2026-06-17T01:49:57.093Z",
  "source": "celestrak-gp",
  "counts": {
    "station": 25,
    "satellite": 400,
    "debris": 250
  },
  "objects": [
    {
      "id": "15772",
      "name": "SL-12 R/B(2)",
      "noradId": 15772,
      "line1": "1 15772U 85042D   26167.68029977  .00000119  00000+0  75112-4 0  9991",
      "line2": "2 15772  71.1078 238.5872 0036312 328.5116 146.5779 14.22005861128463",
      "category": "satellite"
    },
    {
      "id": "15945",
      "name": "SL-14 R/B",
      "noradId": 15945,
      "line1": "1 15945U 85069B   26167.69800330  .00000378  00000+0  39919-4 0  9995",
      "line2": "2 15945  82.5271 291.8259 0017757 220.8646 139.1241 14.86515235187548",
      "category": "satellite"
    },
    {
      "id": "16182",
      "name": "SL-16 R/B",
      "noradId": 16182,
      "line1": "1 16182U 85097B   26167.78224153 -.00000136  00000+0 -44323-4 0  9992",
      "line2": "2 16182  71.0033 291.9303 0005400 112.2363 354.4419 14.16610178101263",
      "category": "satellite"
    },
    {
      "id": "16496",
      "name": "SL-14 R/B",
      "noradId": 16496,
      "line1": "1 16496U 86006B   26167.71507978  .00000457  00000+0  45907-4 0  9996",
      "line2": "2 16496  82.5261 166.5576 0074982 305.0683  54.3516 14.86945184163928",
      "category": "satellite"
    },
    {
      "id": "16719",
      "name": "COSMOS 1743",
      "noradId": 16719,
      "line1": "1 16719U 86034A   26167.69972037  .00038278  00000+0  36054-3 0  9998",
      "line2": "2 16719  82.5280 329.2499 0003889 273.0247  87.0568 15.66900237195718",
      "category": "satellite"
    },
    {
      "id": "16792",
      "name": "SL-14 R/B",
      "noradId": 16792,
      "line1": "1 16792U 86046B   26167.74877846  .00000311  00000+0  33031-4 0  9990",
      "line2": "2 16792  82.4816 346.5896 0021601 260.0389  99.8389 14.85670692141117",
      "category": "satellite"
    },
    {
      "id": "16882",
      "name": "SL-14 R/B",
      "noradId": 16882,
      "line1": "1 16882U 86055B   26167.86632174  .00000320  00000+0  33996-4 0  9996",
      "line2": "2 16882  82.5204  33.4347 0019100   8.7388   1.9493 14.85722954134097",
      "category": "satellite"
    },
    {
      "id": "16908",
      "name": "AJISAI (EGS)",
      "noradId": 16908,
      "line1": "1 16908U 86061A   26167.81399021 -.00000120  00000+0 -15925-3 0  9999",
      "line2": "2 16908  50.0066 148.5424 0011217 179.6572 248.6551 12.44516793480342",
      "category": "satellite"
    },
    {
      "id": "17567",
      "name": "SL-14 R/B",
      "noradId": 17567,
      "line1": "1 17567U 87024B   26167.81352984  .00000319  00000+0  33526-4 0  9994",
      "line2": "2 17567  82.5280 359.6019 0016823 294.6031  65.3432 14.86212963102852",
      "category": "satellite"
    },
    {
      "id": "17589",
      "name": "COSMOS 1833",
      "noradId": 17589,
      "line1": "1 17589U 87027A   26167.61276907  .00000318  00000+0  19538-3 0  9994",
      "line2": "2 17589  70.9178 118.0755 0022785  56.0562 304.2721 14.13049592 24293",
      "category": "satellite"
    },
    {
      "id": "17590",
      "name": "SL-16 R/B",
      "noradId": 17590,
      "line1": "1 17590U 87027B   26167.86319872 -.00000211  00000+0 -80982-4 0  9998",
      "line2": "2 17590  71.0033  67.5114 0006517 312.6123  47.4451 14.17171824 29393",
      "category": "satellite"
    },
    {
      "id": "17912",
      "name": "SL-14 R/B",
      "noradId": 17912,
      "line1": "1 17912U 87038B   26167.59001657  .00000283  00000+0  29984-4 0  9999",
      "line2": "2 17912  82.5009 203.6348 0018834 193.1818 166.8909 14.85444861 93913",
      "category": "satellite"
    },
    {
      "id": "17973",
      "name": "COSMOS 1844",
      "noradId": 17973,
      "line1": "1 17973U 87041A   26167.75354968 -.00000169  00000+0 -62460-4 0  9995",
      "line2": "2 17973  70.8969 185.2219 0032915 236.2309 123.5676 14.14567947 17591",
      "category": "satellite"
    },
    {
      "id": "18153",
      "name": "SL-14 R/B",
      "noradId": 18153,
      "line1": "1 18153U 87055B   26167.75166362  .00000327  00000+0  34704-4 0  9994",
      "line2": "2 18153  82.4996 255.6396 0021731  49.0501 311.2591 14.85710865 84646",
      "category": "satellite"
    },
    {
      "id": "18187",
      "name": "COSMOS 1867",
      "noradId": 18187,
      "line1": "1 18187U 87060A   26167.85378293 -.00000065  00000+0  13388-4 0  9991",
      "line2": "2 18187  65.0116  28.9924 0016527 282.1491  77.7742 14.31515701 34131",
      "category": "satellite"
    },
    {
      "id": "18749",
      "name": "SL-14 R/B",
      "noradId": 18749,
      "line1": "1 18749U 88001B   26167.75363733  .00000354  00000+0  38032-4 0  9996",
      "line2": "2 18749  82.5132 102.1815 0016427 271.1344  88.7990 14.85609368 56734",
      "category": "satellite"
    },
    {
      "id": "18958",
      "name": "COSMOS 1933",
      "noradId": 18958,
      "line1": "1 18958U 88020A   26167.70808309  .00003323  00000+0  15869-3 0  9998",
      "line2": "2 18958  82.5119 152.9095 0003531 186.7207 173.3980 15.18710033 65251",
      "category": "satellite"
    },
    {
      "id": "19046",
      "name": "SL-3 R/B",
      "noradId": 19046,
      "line1": "1 19046U 88032B   26167.84835044  .00003291  00000+0  15129-3 0  9994",
      "line2": "2 19046  97.5255 150.8893 0023790 246.2694 113.6045 15.20838346 67174",
      "category": "satellite"
    },
    {
      "id": "19120",
      "name": "SL-16 R/B",
      "noradId": 19120,
      "line1": "1 19120U 88039B   26167.83901001 -.00000004  00000+0  20757-4 0  9994",
      "line2": "2 19120  71.0138 218.8944 0022278 193.6808 166.3716 14.19629501972452",
      "category": "satellite"
    },
    {
      "id": "19210",
      "name": "COSMOS 1953",
      "noradId": 19210,
      "line1": "1 19210U 88050A   26167.75713397  .00006425  00000+0  21986-3 0  9993",
      "line2": "2 19210  82.5079  58.4685 0012143 127.7954 232.4388 15.29974327 52925",
      "category": "satellite"
    },
    {
      "id": "19257",
      "name": "SL-8 R/B",
      "noradId": 19257,
      "line1": "1 19257U 88053B   26167.73643627  .00000141  00000+0  54201-4 0  9999",
      "line2": "2 19257  74.0480 289.8881 0019144  85.3881  22.0469 14.38967235990846",
      "category": "satellite"
    },
    {
      "id": "19573",
      "name": "COSMOS 1975",
      "noradId": 19573,
      "line1": "1 19573U 88093A   26167.82718453  .00005452  00000+0  19024-3 0  9997",
      "line2": "2 19573  82.5186  18.0641 0011293 172.7360 187.4046 15.29321953 34556",
      "category": "satellite"
    },
    {
      "id": "19574",
      "name": "SL-14 R/B",
      "noradId": 19574,
      "line1": "1 19574U 88093B   26167.87868166  .00000371  00000+0  39759-4 0  9993",
      "line2": "2 19574  82.5311 308.9343 0022096  71.3940  43.5566 14.85741649 15746",
      "category": "satellite"
    },
    {
      "id": "19650",
      "name": "SL-16 R/B",
      "noradId": 19650,
      "line1": "1 19650U 88102B   26167.72271152 -.00000183  00000+0 -68425-4 0  9991",
      "line2": "2 19650  71.0000 303.1163 0015821 226.0455 133.9364 14.16164333940913",
      "category": "satellite"
    },
    {
      "id": "20261",
      "name": "INTERCOSMOS 24",
      "noradId": 20261,
      "line1": "1 20261U 89080A   26167.69883199  .00000784  00000+0  22180-3 0  9995",
      "line2": "2 20261  82.6066  39.9629 1188372  63.0371 308.7061 12.59661310679268",
      "category": "satellite"
    },
    {
      "id": "20262",
      "name": "SL-14 R/B",
      "noradId": 20262,
      "line1": "1 20262U 89080C   26167.76232214  .00000239  00000+0  71510-4 0  9997",
      "line2": "2 20262  82.5932 109.5806 1228766 318.3744  32.9841 12.50570504672533",
      "category": "satellite"
    },
    {
      "id": "20323",
      "name": "DELTA 1 R/B",
      "noradId": 20323,
      "line1": "1 20323U 89089B   26167.80544458  .00000239  00000+0  67580-4 0  9997",
      "line2": "2 20323  97.0635 359.4247 0069210 168.1817 192.1026 14.50731086910103",
      "category": "satellite"
    },
    {
      "id": "20443",
      "name": "ARIANE 40 R/B",
      "noradId": 20443,
      "line1": "1 20443U 90005H   26167.69725133  .00000205  00000+0  78711-4 0  9999",
      "line2": "2 20443  98.2959 225.3285 0008822 266.0690  93.9490 14.39927221907058",
      "category": "satellite"
    },
    {
      "id": "20453",
      "name": "DELTA 2 R/B(1)",
      "noradId": 20453,
      "line1": "1 20453U 90008B   26167.61776220  .00073516  00000+0  54588-3 0  9998",
      "line2": "2 20453  35.5992 239.4686 0065024 109.1082 251.6712 15.68742109941613",
      "category": "satellite"
    },
    {
      "id": "20465",
      "name": "COSMOS 2058",
      "noradId": 20465,
      "line1": "1 20465U 90010A   26167.67222265  .00003544  00000+0  20458-3 0  9998",
      "line2": "2 20465  82.4681 309.8622 0009240   2.5991 357.5285 15.12011210957199",
      "category": "satellite"
    },
    {
      "id": "20466",
      "name": "SL-14 R/B",
      "noradId": 20466,
      "line1": "1 20466U 90010B   26167.76320762  .00000306  00000+0  34163-4 0  9992",
      "line2": "2 20466  82.5016 174.3431 0019126 337.7433  22.2950 14.83645963943177",
      "category": "satellite"
    }
  ]
}